COSMOS 2433 (720)       
1 32275U 07052A   26034.17712311 -.00000067  00000+0  00000+0 0  9993
2 32275  65.6527 320.4448 0003499 266.7492  93.2376  2.13103800142205
COSMOS 2432 (719)       
1 32276U 07052B   26034.48011632 -.00000067  00000+0  00000+0 0  9996
2 32276  65.6684 320.5596 0011086 323.8894 212.8578  2.13103109142235
COSMOS 2434 (721)       
1 32393U 07065A   26034.40222744  .00000035  00000+0  00000+0 0  9994
2 32393  64.3184 196.4252 0004519  71.8916 351.2125  2.13101058140924
COSMOS 2436 (723)       
1 32395U 07065C   26032.97007691  .00000034  00000+0  00000+0 0  9997
2 32395  64.3268 196.5441 0017760   9.8821 167.3904  2.13099964140842
COSMOS 2456 (730)       
1 36111U 09070A   26034.34549005  .00000001  00000+0  00000+0 0  9992
2 36111  64.9301  75.5388 0005466 300.7741 236.1838  2.13103368125574
COSMOS 2457 (733)       
1 36112U 09070B   26034.47595197  .00000000  00000+0  00000+0 0  9999
2 36112  64.9156  75.3808 0002934 183.3194 222.3734  2.13100821125586
COSMOS 2460 (732)       
1 36402U 10007C   26032.31225016 -.00000064  00000+0  00000+0 0  9995
2 36402  65.4993 319.0659 0001797 329.3142 216.7476  2.13105975123837
COSMOS 2476 (744)       
1 37867U 11064A   26034.29931236  .00000003  00000+0  00000+0 0  9994
2 37867  65.1910  77.3927 0025096 239.1500 170.7281  2.13103538110916
COSMOS 2477 (745)       
1 37868U 11064B   26034.48475288  .00000002  00000+0  00000+0 0  9995
2 37868  65.1975  77.4646 0022135 240.1686 132.7279  2.13102685110912
COSMOS 2475 (743)       
1 37869U 11064C   26034.52883502  .00000002  00000+0  00000+0 0  9993
2 37869  65.2043  77.4836 0027848 252.4888 109.9218  2.13101440110925
COSMOS 2485 (747)       
1 39155U 13019A   26034.17129903  .00000005  00000+0  00000+0 0  9997
2 39155  65.3418  78.1036 0025520 234.7744 125.0639  2.13102889 99426
COSMOS 2492 (754)       
1 39620U 14012A   26034.12999892 -.00000064  00000+0  00000+0 0  9991
2 39620  65.3758 318.4937 0013892 320.9669  38.9627  2.13103018 92385
COSMOS 2500 (755)       
1 40001U 14032A   26034.30149803 -.00000064  00000+0  00000+0 0  9997
2 40001  65.3114 318.2458 0005963 213.3684 146.6248  2.13105907 90602
COSMOS 2501 (702K)      
1 40315U 14075A   26031.74617669  .00000041  00000+0  00000+0 0  9991
2 40315  63.6169 195.0921 0020314 204.2500 155.6308  2.13101146 86940
COSMOS 2514 (751)       
1 41330U 16008A   26034.07677646 -.00000063  00000+0  00000+0 0  9992
2 41330  65.1012 317.6113 0009914 215.8369 144.1279  2.13102576 77769
COSMOS 2522 (752)       
1 42939U 17055A   26034.38405934  .00000034  00000+0  00000+0 0  9991
2 42939  64.0792 196.4352 0006488 223.3014 136.6164  2.13101651 65129
COSMOS 2527 (756)       
1 43508U 18053A   26034.34525618  .00000005  00000+0  00000+0 0  9999
2 43508  65.5005  78.3729 0009490 239.1445 120.8396  2.13102023 59422
COSMOS 2529 (757)       
1 43687U 18086A   26034.44228522  .00000035  00000+0  00000+0 0  9991
2 43687  64.2953 197.1071 0007078 252.2974 107.5949  2.13101865 56438
COSMOS 2534 (758)       
1 44299U 19030A   26034.50077036  .00000036  00000+0  00000+0 0  9991
2 44299  64.3686 197.1146 0008806 282.4402 256.7714  2.13102225 52070
COSMOS 2544 (759)       
1 44850U 19088A   26034.28986837  .00000005  00000+0  00000+0 0  9996
2 44850  65.4879  78.2006 0015375 256.4180 103.4881  2.13101781 47866
COSMOS 2545 (760)       
1 45358U 20018A   26033.07767250 -.00000063  00000+0  00000+0 0  9992
2 45358  64.4371 317.1695 0009615 252.5046 107.4193  2.13102260 45785
COSMOS 2547 (705K)      
1 46805U 20075A   26033.73527051  .00000033  00000+0  00000+0 0  9995
2 46805  64.5994 196.9593 0006241 227.6070 132.3109  2.13100009 41045
COSMOS 2557 (706K)      
1 52984U 22075A   26032.96192211 -.00000066  00000+0  00000+0 0  9999
2 52984  64.3786 319.2508 0012603 281.9315  77.9524  2.13101521 27833
COSMOS 2559 (707K)      
1 54031U 22130A   26032.78122163 -.00000066  00000+0  00000+0 0  9995
2 54031  64.3510 319.3450 0010730 186.6019 173.4084  2.13101108 25800
COSMOS 2564 (761)       
1 54377U 22161A   26034.50200106  .00000036  00000+0  00000+0 0  9994
2 54377  64.7418 197.1458 0008808 204.7821 155.1455  2.13101959 24789
COSMOS 2569 (703K)      
1 57517U 23114A   26034.04594690  .00000005  00000+0  00000+0 0  9991
2 57517  65.2230  77.1450 0012377 289.4582  70.4856  2.13103980 19408
COSMOS 2584 (704K)      
1 63130U 25042A   26032.99421580  .00000010  00000+0  00000+0 0  9996
2 63130  65.0043  77.3991 0007923 230.5803 129.4286  2.13103094  7160
COSMOS 2596 (708K)      
1 65590U 25206B   26034.47240104 -.00000068  00000+0  00000+0 0  9990
2 65590  64.7122 319.6418 0013495 312.5102 219.4071  2.13100099  3065
